INTELSAT 21 (IS-21)     
1 38749U 12045A   26154.91195603 -.00000273  00000+0  00000+0 0  9996
2 38749   0.0365  77.8471 0002157   6.8143  78.0052  1.00270392 50391
INTELSAT 23 (IS-23)     
1 38867U 12057A   26154.91290936 -.00000273  00000+0  00000+0 0  9995
2 38867   0.0145 302.7177 0000268 185.9999  39.2997  1.00268667 49825
FM-6                    
1 39360U 13058A   26154.68646652 -.00000002  00000+0  00000+0 0  9990
2 39360   0.0086  41.1711 0002470 106.4016 235.3713  1.00260986 45930
INTELSAT 30 (IS-30)     
1 40271U 14062A   26154.90458933 -.00000139  00000+0  00000+0 0  9998
2 40271   0.0262  46.7668 0000903   8.8948  67.2961  1.00270304  6668
DIRECTV 14              
1 40333U 14078B   26154.90380933 -.00000113  00000+0  00000+0 0  9990
2 40333   0.0105 330.7434 0000221 173.7364 334.0187  1.00271536 41917
DIRECTV 15              
1 40663U 15026A   26154.90302933 -.00000090  00000+0  00000+0 0  9998
2 40663   0.0174 358.7956 0000142  40.9515  74.8062  1.00268295 40337
SKY MEXICO-1            
1 40664U 15026B   26154.90779601 -.00000222  00000+0  00000+0 0  9996
2 40664   0.0176 355.1912 0002375  95.8520  49.3222  1.00271138 40322
INTELSAT 34 (IS-34)     
1 40874U 15039A   26154.91247603 -.00000273  00000+0  00000+0 0  9992
2 40874   0.0092 337.4190 0000344  48.3189 139.6288  1.00270144 39500
INTELSAT 31 (IS-31)     
1 41581U 16035A   26154.83324101 -.00000139  00000+0  00000+0 0  9996
2 41581   0.0143 267.3905 0000789 341.4440 208.3714  1.00270240 36555
INTELSAT 36 (IS-36)     
1 41747U 16053A   26154.86565248 -.00000012  00000+0  00000+0 0  9992
2 41747   0.0119   5.2877 0001658 338.8294 288.3347  1.00270677 35825
INTELSAT 32E (IS-32E)   
1 41945U 17007B   26154.91490271 -.00000257  00000+0  00000+0 0  9992
2 41945   0.0177 349.6739 0000285 352.6574 196.2179  1.00272551 34092
INTELSAT 35E (IS-35E)   
1 42818U 17041A   26154.91663605 -.00000226  00000+0  00000+0 0  9999
2 42818   0.0178   9.5519 0002317  63.2302 115.0730  1.00269746 32680
INTELSAT 37E (IS-37E)   
1 42950U 17059A   26154.91985200 -.00000128  00000+0  00000+0 0  9994
2 42950   0.0258  65.8997 0002680  18.6874 120.9483  1.00272994 31938
AZERSPACE 2 (IS-38)     
1 43632U 18074A   26154.93233328  .00000148  00000+0  00000+0 0  9990
2 43632   0.0174 340.2532 0001575  97.9559 194.9213  1.00271970 28313
HORIZONS-3E             
1 43633U 18074B   26154.74303062 -.00000018  00000+0  00000+0 0  9990
2 43633   0.0147 152.8945 0000689 126.1807  49.6128  1.00271837 28206
AT&T T-16               
1 44333U 19034A   26154.90346266 -.00000103  00000+0  00000+0 0  9991
2 44333   0.0268  66.1523 0000357 224.5559 186.0372  1.00271895 25507
INTELSAT 39 (IS-39)     
1 44476U 19049B   26154.86435247  .00000045  00000+0  00000+0 0  9992
2 44476   0.0186 323.9850 0000601   7.1591 294.2970  1.00271363 24992
GALAXY 30 (G-30)        
1 46114U 20056C   26154.75585736  .00000049  00000+0  00000+0 0  9994
2 46114   0.0127  30.6692 0002472  40.0890 328.5461  1.00272023 21155
GALAXY 33 (G-33)        
1 54026U 22128A   26154.68317317  .00000091  00000+0  00000+0 0  9994
2 54026   0.0123  21.6992 0002056  53.4188 289.9794  1.00272978 13600
GALAXY 34 (G-34)        
1 54027U 22128B   26154.68403984  .00000000  00000+0  00000+0 0  9991
2 54027   0.0239 343.8859 0002093 100.1369 285.3811  1.00275256 13772
GALAXY 31 (G-31)        
1 54243U 22153A   26154.62701866  .00000025  00000+0  00000+0 0  9990
2 54243   0.0163  28.6540 0001522  45.3280 282.8301  1.00271883  6995
GALAXY 32 (G-32)        
1 54244U 22153B   26154.83402102 -.00000162  00000+0  00000+0 0  9998
2 54244   0.0097 353.7552 0002383  46.7034  61.0732  1.00270822 13013
GALAXY 35 (G-35)        
1 54741U 22170A   26154.90502266  .00000000  00000+0  00000+0 0  9999
2 54741   0.0141   7.9736 0002267  69.3683  47.7250  1.00270329 12768
GALAXY 36 (G-36)        
1 54742U 22170B   26154.83454102 -.00000173  00000+0  00000+0 0  9999
2 54742   0.0175 242.0719 0002903 197.6370  24.0211  1.00272722 12645
GALAXY 37 (G-37)        
1 57493U 23112A   26154.89817597  .00000060  00000+0  00000+0 0  9993
2 57493   0.0155 311.1389 0002270 124.6295  12.9342  1.00273009 10416
